NORAD_CAT_ID,OBJECT_NAME,OBJECT_TYPE,EPOCH,MEAN_MOTION,ECCENTRICITY,INCLINATION,RA_OF_ASC_NODE,ARG_OF_PERICENTER,MEAN_ANOMALY,BSTAR,MEAN_MOTION_DOT,MEAN_MOTION_DDOT,TLE_LINE0,TLE_LINE1,TLE_LINE2,SEMIMAJOR_AXIS,PERIOD,APOGEE,PERIGEE,DECAYED
53802.0,STARLINK-4726,PAYLOAD,2022-11-01 22:00:00,15.73246728,0.0003002,53.2161,10.4525,12.2079,236.9964,-0.00068605,-0.00096033,0.0,0 STARLINK-4726,1 53802U 22111AF  22305.91667824 -.00096033  00000-0 -68605-3 0  9991,2 53802  53.2161  10.4525 0003002  12.2079 236.9964 15.73246728  8081,6727.762,91.53,351.647,347.607,0.0
53802.0,STARLINK-4726,PAYLOAD,2022-11-02 14:00:01,15.73091369,0.0003323,53.2165,7.1561,12.2084,54.8386,0.00081389,0.0011466,0.0,0 STARLINK-4726,1 53802U 22111AF  22306.58334491  .00114660  00000-0  81389-3 0  9995,2 53802  53.2165   7.1561 0003323  12.2084  54.8386 15.73091369  8185,6728.205,91.54,352.306,347.834,0.0
53802.0,STARLINK-4726,PAYLOAD,2022-11-02 22:00:00,15.73155726,0.0003187,53.2163,5.504,12.306,143.5701,0.00046192,0.00064595,0.0,0 STARLINK-4726,1 53802U 22111AF  22306.91667824  .00064595  00000-0  46192-3 0  9995,2 53802  53.2163   5.5040 0003187  12.3060 143.5701 15.73155726  8231,6728.021,91.536,352.031,347.742,0.0
53802.0,STARLINK-4726,PAYLOAD,2022-11-03 08:00:01,15.73277526,0.0003276,53.2161,3.4429,13.3737,343.6721,0.00017415,0.00023974,0.0,0 STARLINK-4726,1 53802U 22111AF  22307.33334491  .00023974  00000-0  17415-3 0  9995,2 53802  53.2161   3.4429 0003276  13.3737 343.6721 15.73277526  8304,6727.674,91.529,351.74300000000005,347.335,0.0
53802.0,STARLINK-4726,PAYLOAD,2022-11-03 14:00:01,15.73297123,0.0003408,53.216,2.2069,11.1048,322.7082,-0.0002796,-0.00039855,0.0,0 STARLINK-4726,1 53802U 22111AF  22307.58334491 -.00039855  00000-0 -27960-3 0  9995,2 53802  53.2160   2.2069 0003408  11.1048 322.7082 15.73297123  1304,6727.618,91.528,351.776,347.191,0.0
53802.0,STARLINK-4726,PAYLOAD,2022-11-03 22:00:00,15.73261228,0.0003244,53.2161,0.5553,10.3344,52.5137,-0.00040316,-0.00056988,0.0,0 STARLINK-4726,1 53802U 22111AF  22307.91667824 -.00056988  00000-0 -40316-3 0  9997,2 53802  53.2161   0.5553 0003244  10.3344  52.5137 15.73261228  1308,6727.721,91.53,351.76800000000014,347.403,0.0
53802.0,STARLINK-4726,PAYLOAD,2022-11-04 14:00:01,15.73279551,0.0003532,53.2171,357.26,14.6058,226.149,-0.0026155,-0.00354086,0.0,0 STARLINK-4726,1 53802U 22111AF  22308.58334491 -.00354086  00000-0 -26155-2 0  9996,2 53802  53.2171 357.2600 0003532  14.6058 226.1490 15.73279551  1302,6727.668000000002,91.529,351.91,347.157,0.0
53802.0,STARLINK-4726,PAYLOAD,2022-11-04 22:00:01,15.7319621,0.0003363,53.2161,355.6065,9.8628,319.9735,-0.00034908,-0.00049336,0.0,0 STARLINK-4726,1 53802U 22111AF  22308.91668981 -.00049336  00000-0 -34908-3 0  9992,2 53802  53.2161 355.6065 0003363   9.8628 319.9735 15.73196210  8556,6727.906,91.533,352.034,347.5080000000001,0.0
53802.0,STARLINK-4726,PAYLOAD,2022-11-05 14:00:01,15.73064673,0.0003656,53.2154,352.3098,9.3478,138.2472,0.00088899,0.00125321,0.0,0 STARLINK-4726,1 53802U 22111AF  22309.58335648  .00125321  00000-0  88899-3 0  9992,2 53802  53.2154 352.3098 0003656   9.3478 138.2472 15.73064673  1304,6728.281,91.541,352.606,347.686,0.0
53802.0,STARLINK-4726,PAYLOAD,2022-11-05 22:00:01,15.73142858,0.0003452,53.2155,350.6584,9.1961,227.23,0.00064173,0.00090212,0.0,0 STARLINK-4726,1 53802U 22111AF  22309.91668981  .00090212  00000-0  64173-3 0  9997,2 53802  53.2155 350.6584 0003452   9.1961 227.2300 15.73142858  1306,6728.058000000001,91.537,352.246,347.601,0.0
53802.0,STARLINK-4726,PAYLOAD,2022-11-06 06:00:00,15.73256049,0.0003443,53.2156,349.0095,7.0197,318.2213,-0.0015842,-0.00217921,0.0,0 STARLINK-4726,1 53802U 22111AF  22310.25001157 -.00217921  00000-0 -15842-2 0  9990,2 53802  53.2156 349.0095 0003443   7.0197 318.2213 15.73256049  8763,6727.735,91.53,351.917,347.284,0.0
53802.0,STARLINK-4726,PAYLOAD,2022-11-06 14:00:01,15.73204039,0.0003836,53.2153,347.3614,8.3232,45.8686,0.00032842,0.00045743,0.0,0 STARLINK-4726,1 53802U 22111AF  22310.58334491  .00045743  00000-0  32842-3 0  9995,2 53802  53.2153 347.3614 0003836   8.3232  45.8686 15.73204039  1300,6727.884,91.533,352.329,347.168,0.0
53802.0,STARLINK-4726,PAYLOAD,2022-11-07 08:00:01,15.73218982,0.0003727,53.2149,343.6492,4.6192,339.7345,-8.9068e-05,-0.0001312,0.0,0 STARLINK-4726,1 53802U 22111AF  22311.33334491 -.00013120  00000-0 -89068-4 0  9998,2 53802  53.2149 343.6492 0003727   4.6192 339.7345 15.73218982  8936,6727.840999999999,91.532,352.214,347.199,0.0
53802.0,STARLINK-4726,PAYLOAD,2022-11-07 22:00:00,15.73201236,0.0003633,53.2146,340.7608,4.9568,45.0598,-2.1718e-05,-3.672e-05,0.0,0 STARLINK-4726,1 53802U 22111AF  22311.91667824 -.00003672  00000-0 -21718-4 0  9990,2 53802  53.2146 340.7608 0003633   4.9568  45.0598 15.73201236  1301,6727.892,91.533,352.201,347.31199999999984,0.0
53802.0,STARLINK-4726,PAYLOAD,2022-11-08 00:00:02,15.73235216,0.000363,53.2144,340.3481,7.3878,154.955,0.00024201,0.00033538,0.0,0 STARLINK-4726,1 53802U 22111AF  22312.00002315  .00033538  00000-0  24201-3 0  9990,2 53802  53.2144 340.3481 0003630   7.3878 154.9550 15.73235216  9033,6727.795,91.531,352.102,347.218,0.0
53802.0,STARLINK-4726,PAYLOAD,2022-11-08 10:00:01,15.73218185,0.0003905,53.2151,338.2885,10.4359,353.0643,-0.00011621,-0.00016921,0.0,0 STARLINK-4726,1 53802U 22111AF  22312.41668981 -.00016921  00000-0 -11621-3 0  9993,2 53802  53.2151 338.2885 0003905  10.4359 353.0643 15.73218185  9108,6727.843000000003,91.532,352.336,347.081,0.0
53802.0,STARLINK-4726,PAYLOAD,2022-11-08 14:00:01,15.73195399,0.0003949,53.2144,337.4634,7.1826,220.7243,3.8275e-05,4.751e-05,0.0,0 STARLINK-4726,1 53802U 22111AF  22312.58334491  .00004751  00000-0  38275-4 0  9998,2 53802  53.2144 337.4634 0003949   7.1826 220.7243 15.73195399  1304,6727.908,91.533,352.43,347.116,0.0
53802.0,STARLINK-4726,PAYLOAD,2022-11-08 22:00:00,15.73184265,0.0003726,53.2144,335.8119,5.6526,311.1838,0.00010507,0.00014142,0.0,0 STARLINK-4726,1 53802U 22111AF  22312.91667824  .00014142  00000-0  10507-3 0  9996,2 53802  53.2144 335.8119 0003726   5.6526 311.1838 15.73184265  1302,6727.94,91.534,352.31199999999984,347.298,0.0
53802.0,STARLINK-4726,PAYLOAD,2022-11-09 14:00:01,15.73149749,0.0004027,53.2136,332.5146,6.6587,127.9934,-1.8603e-05,-3.2299999999999986e-05,0.0,0 STARLINK-4726,1 53802U 22111AF  22313.58334491 -.00003230  00000-0 -18603-4 0  9995,2 53802  53.2136 332.5146 0004027   6.6587 127.9934 15.73149749  1308,6728.038000000001,91.536,352.61300000000006,347.194,0.0
53802.0,STARLINK-4726,PAYLOAD,2022-11-09 22:00:01,15.7314988,0.0003722,53.2138,330.86300000000006,4.9582,218.63,9.579e-05,0.00012816,0.0,0 STARLINK-4726,1 53802U 22111AF  22313.91668981  .00012816  00000-0  95790-4 0  9996,2 53802  53.2138 330.8630 0003722   4.9582 218.6300 15.73149880  9349,6728.038000000001,91.536,352.407,347.399,0.0
53802.0,STARLINK-4726,PAYLOAD,2022-11-10 14:00:01,15.73270133,0.0004116,53.2139,327.5656,7.2434,34.1041,-0.00022252,-0.00031846,0.0,0 STARLINK-4726,1 53802U 22111AF  22314.58334491 -.00031846  00000-0 -22252-3 0  9994,2 53802  53.2139 327.5656 0004116   7.2434  34.1041 15.73270133  1308,6727.695,91.529,352.329,346.791,0.0
53802.0,STARLINK-4726,PAYLOAD,2022-11-10 22:00:00,15.73235332,0.0003821,53.214,325.914,5.6134,124.7423,5.4489e-05,7.043e-05,0.0,0 STARLINK-4726,1 53802U 22111AF  22314.91667824  .00007043  00000-0  54489-4 0  9998,2 53802  53.2140 325.9140 0003821   5.6134 124.7423 15.73235332  9491,6727.794,91.531,352.23,347.089,0.0
53802.0,STARLINK-4726,PAYLOAD,2022-11-11 14:00:01,15.73237156,0.000405,53.2133,322.6164,1.45,306.8258,-0.00026977,-0.00038392,0.0,0 STARLINK-4726,1 53802U 22111AF  22315.58334491 -.00038392  00000-0 -26977-3 0  9996,2 53802  53.2133 322.6164 0004050   1.4500 306.8258 15.73237156  1306,6727.7890000000025,91.531,352.379,346.92900000000014,0.0
53802.0,STARLINK-4726,PAYLOAD,2022-11-11 16:00:01,15.73250782,0.0003977,53.2134,322.2033,1.5341,59.0427,-0.00054504,-0.00076629,0.0,0 STARLINK-4726,1 53802U 22111AF  22315.66668981 -.00076629  00000-0 -54504-3 0  9991,2 53802  53.2134 322.2033 0003977   1.5341  59.0427 15.73250782  9616,6727.75,91.53,352.291,346.94,0.0
53802.0,STARLINK-4726,PAYLOAD,2022-11-11 22:00:00,15.731867800000002,0.000381,53.2135,320.9648,2.5234,34.7215,0.00047306,0.00066277,0.0,0 STARLINK-4726,1 53802U 22111AF  22315.91667824  .00066277  00000-0  47306-3 0  9992,2 53802  53.2135 320.9648 0003810   2.5234  34.7215 15.73186780  1301,6727.933000000001,91.534,352.361,347.235,0.0
53802.0,STARLINK-4726,PAYLOAD,2022-11-12 08:00:01,15.7321535,0.0004062,53.2139,318.9048,5.7766,232.659,0.00019689,0.00027127,0.0,0 STARLINK-4726,1 53802U 22111AF  22316.33334491  .00027127  00000-0  19689-3 0  9994,2 53802  53.2139 318.9048 0004062   5.7766 232.6590 15.73215350  9726,6727.851,91.532,352.449,346.9840000000001,0.0
53802.0,STARLINK-4726,PAYLOAD,2022-11-12 14:00:01,15.73240526,0.0004076,53.2137,317.6673,3.7646,211.3802,-0.00025606,-0.00036486,0.0,0 STARLINK-4726,1 53802U 22111AF  22316.58334491 -.00036486  00000-0 -25606-3 0  9997,2 53802  53.2137 317.6673 0004076   3.7646 211.3802 15.73240526  1303,6727.78,91.531,352.38699999999994,346.902,0.0
53802.0,STARLINK-4726,PAYLOAD,2022-11-12 22:00:00,15.73198398,0.0003873,53.2138,316.0158,3.276,300.8382,0.00010068,0.00013533,0.0,0 STARLINK-4726,1 53802U 22111AF  22316.91667824  .00013533  00000-0  10068-3 0  9995,2 53802  53.2138 316.0158 0003873   3.2760 300.8382 15.73198398  9811,6727.9,91.533,352.37,347.159,0.0
53802.0,STARLINK-4726,PAYLOAD,2022-11-13 06:00:02,15.7321336,0.0004062,53.2136,314.3681,3.8639,29.246,-0.00074294,-0.00103733,0.0,0 STARLINK-4726,1 53802U 22111AF  22317.25002315 -.00103733  00000-0 -74294-3 0  9996,2 53802  53.2136 314.3681 0004062   3.8639  29.2460 15.73213360  9864,6727.857,91.532,352.455,346.98900000000015,0.0
